NOAA 20 (JPSS-1)
1 43013U 17073A   25265.57961071  .00000137  00000+0  85784-4 0  9991
2 43013  98.7456 202.8195 0001277  38.5460 321.5807 14.19562229406504
GOES 17
1 43226U 18022A   25265.63220263 -.00000188  00000+0  00000+0 0  9990
2 43226   0.2452  92.1179 0002539 151.4898 256.2221  1.00271191 27748
FENGYUN 2H
1 43491U 18050A   25265.88815793 -.00000131  00000+0  00000+0 0  9998
2 43491   2.3380  82.2415 0002787 134.0573 184.5896  1.00269275 26751
METOP-C
1 43689U 18087A   25265.80487317  .00000189  00000+0  10624-3 0  9995
2 43689  98.7052 324.7628 0001068 159.0499 201.0722 14.21494293356846
GEO-KOMPSAT-2A
1 43823U 18100A   25265.53443071 -.00000350  00000+0  00000+0 0  9994
2 43823   0.0423  31.1550 0001575 100.9808 190.1724  1.00271797 24947
METEOR-M2 2
1 44387U 19038A   25266.01827079  .00000289  00000+0  14497-3 0  9998
2 44387  98.8865 244.7947 0002334  76.0568 284.0870 14.24239105323269
ARKTIKA-M 1
1 47719U 21016A   25246.38975133 -.00000134  00000+0  00000+0 0  9993
2 47719  63.1607  97.4931 7149598 268.8202  16.1856  2.00602919 33032
FENGYUN 3E
1 49008U 21062A   25265.98784300  .00000066  00000+0  51693-4 0  9990
2 49008  98.7477 267.4574 0002482 117.4748 242.6681 14.19863137218663
GOES 18
1 51850U 22021A   25265.76540992  .00000091  00000+0  00000+0 0  9996
2 51850   0.0454  24.6505 0000476 233.0467 242.7200  1.00271950  3913
NOAA 21 (JPSS-2)
1 54234U 22150A   25265.68614616  .00000129  00000+0  81862-4 0  9996
2 54234  98.7320 203.0583 0000882 189.1337 170.9823 14.19560999148590
METEOSAT-12 (MTG-I1)
1 54743U 22170C   25265.86405057 -.00000013  00000+0  00000+0 0  9993
2 54743   0.6650  25.9142 0001786 123.2710 163.4769  1.00269713 10290
TIANMU-1 03
1 55973U 23039A   25266.01725638  .00024756  00000+0  67179-3 0  9995
2 55973  97.5101  66.6267 0003274 358.6595   1.4640 15.37596468139646
TIANMU-1 04
1 55974U 23039B   25266.01263478  .00024908  00000+0  66991-3 0  9995
2 55974  97.5030  65.8508 0003938 350.6941   9.4230 15.37868856139647
TIANMU-1 05
1 55975U 23039C   25265.98892816  .00025695  00000+0  69777-3 0  9994
2 55975  97.5077  66.3107 0003462  22.5968 337.5428 15.37566135139623
TIANMU-1 06
1 55976U 23039D   25266.01799729  .00025030  00000+0  67163-3 0  9999
2 55976  97.5090  66.7421 0003729  14.8486 345.2867 15.37941269139647
METEOR-M2 3
1 57166U 23091A   25266.02887337  .00000068  00000+0  48435-4 0  9990
2 57166  98.6504 320.9238 0003283 212.9259 147.1716 14.24011233116491
TIANMU-1 07
1 57399U 23101A   25266.00541741  .00013105  00000+0  50637-3 0  9996
2 57399  97.3004 317.6736 0004364  28.4901 331.6576 15.26361009120830
TIANMU-1 08
1 57400U 23101B   25266.03727826  .00013136  00000+0  50751-3 0  9993
2 57400  97.2992 317.5164 0006340  24.1327 336.0208 15.26355985120830
TIANMU-1 09
1 57401U 23101C   25266.02415647  .00014020  00000+0  54190-3 0  9992
2 57401  97.2950 317.0630 0005599  26.2245 333.9276 15.26330807120832
TIANMU-1 10
1 57402U 23101D   25265.99225885  .00012447  00000+0  48157-3 0  9998
2 57402  97.3029 317.7967 0007360  22.0942 338.0612 15.26315780120829
FENGYUN 3F
1 57490U 23111A   25266.04568455  .00000138  00000+0  85759-4 0  9990
2 57490  98.7183 335.6035 0001427 106.8989 253.2344 14.19861347110956
ARKTIKA-M 2
1 58584U 23198A   25245.63669142  .00000141  00000+0  00000+0 0  9992
2 58584  63.2042 185.8992 6865009 268.5190  18.6674  2.00594607 12554
TIANMU-1 11
1 58645U 23205A   25266.04681512  .00010280  00000+0  43736-3 0  9994
2 58645  97.3687 287.1262 0008388 217.0416 143.0243 15.23167305 96809
TIANMU-1 12
1 58646U 23205B   25266.00242222  .00011399  00000+0  48657-3 0  9991
2 58646  97.3674 286.9147 0007141 197.0255 163.0743 15.23035887 96782
TIANMU-1 13
1 58647U 23205C   25266.03634494  .00010978  00000+0  46864-3 0  9991
2 58647  97.3702 287.1179 0008082 177.3874 182.7407 15.23036619 96785
TIANMU-1 14
1 58648U 23205D   25266.01906723  .00011190  00000+0  47763-3 0  9993
2 58648  97.3632 286.5246 0008749 183.1229 176.9955 15.23028411 96789
TIANMU-1 19
1 58660U 23208A   25266.00043103  .00017145  00000+0  67527-3 0  9999
2 58660  97.4352  17.3539 0005887 170.6676 189.4673 15.25660141 96505
TIANMU-1 20
1 58661U 23208B   25265.98462764  .00016779  00000+0  63730-3 0  9998
2 58661  97.4291  17.7067 0008011 183.6740 176.4442 15.26859896 96560
TIANMU-1 21
1 58662U 23208C   25265.97610777  .00018778  00000+0  66762-3 0  9996
2 58662  97.4336  19.2680 0007671 179.7186 180.4060 15.29017545 96640
TIANMU-1 22
1 58663U 23208D   25265.99080781  .00015953  00000+0  63076-3 0  9992
2 58663  97.4349  17.4320 0003985 189.1789 170.9377 15.25554022 96517
