OBJECT_NAME,OBJECT_ID,EPOCH,MEAN_MOTION,ECCENTRICITY,INCLINATION,RA_OF_ASC_NODE,ARG_OF_PERICENTER,MEAN_ANOMALY,EPHEMERIS_TYPE,CLASSIFICATION_TYPE,NORAD_CAT_ID,ELEMENT_SET_NO,REV_AT_EPOCH,BSTAR,MEAN_MOTION_DOT,MEAN_MOTION_DDOT
NOAA 20 (JPSS-1),2017-073A,2025-09-22T13:54:38.365344,14.19562229,.00012778,98.7456,202.8195,38.5460,321.5807,0,U,43013,999,40650,.85783969E-4,.137E-5,0
GOES 17,2018-022A,2025-09-22T15:10:22.307232,1.00271191,.00025398,0.2452,92.1179,151.4898,256.2221,0,U,43226,999,2774,0,-.188E-5,0
FENGYUN 2H,2018-050A,2025-09-22T21:18:56.845152,1.00269275,.00027874,2.3380,82.2415,134.0573,184.5896,0,U,43491,999,2675,0,-.131E-5,0
METOP-C,2018-087A,2025-09-22T19:19:01.041888,14.21494293,.00010683,98.7052,324.7628,159.0499,201.0722,0,U,43689,999,35684,.10623891E-3,.189E-5,0
GEO-KOMPSAT-2A,2018-100A,2025-09-22T12:49:34.813344,1.00271797,.00015757,0.0423,31.1550,100.9808,190.1724,0,U,43823,999,2494,0,-.35E-5,0
METEOR-M2 2,2019-038A,2025-09-23T00:26:18.596256,14.24239105,.00023343,98.8865,244.7947,76.0568,284.0870,0,U,44387,999,32326,.14496515E-3,.289E-5,0
ARKTIKA-M 1,2021-016A,2025-09-03T09:21:14.514912,2.00602919,.71495985,63.1607,97.4931,268.8202,16.1856,0,U,47719,999,3303,0,-.134E-5,0
FENGYUN 3E,2021-062A,2025-09-22T23:42:29.635200,14.19863137,.00024826,98.7477,267.4574,117.4748,242.6681,0,U,49008,999,21866,.51693192E-4,.66E-6,0
GOES 18,2022-021A,2025-09-22T18:22:11.417088,1.00271950,.00004762,0.0454,24.6505,233.0467,242.7200,0,U,51850,999,391,0,.91E-6,0
NOAA 21 (JPSS-2),2022-150A,2025-09-22T16:28:03.028224,14.19560999,.0000882,98.7320,203.0583,189.1337,170.9823,0,U,54234,999,14859,.81861548E-4,.129E-5,0
METEOSAT-12 (MTG-I1),2022-170C,2025-09-22T20:44:13.969248,1.00269713,.00017865,0.6650,25.9142,123.2710,163.4769,0,U,54743,999,1029,0,-.13E-6,0
TIANMU-1 03,2023-039A,2025-09-23T00:24:50.951232,15.37596468,.00032749,97.5101,66.6267,358.6595,1.4640,0,U,55973,999,13964,.67179375E-3,.24756E-3,0
TIANMU-1 04,2023-039B,2025-09-23T00:18:11.644992,15.37868856,.00039385,97.5030,65.8508,350.6941,9.4230,0,U,55974,999,13964,.66991038E-3,.24908E-3,0
TIANMU-1 05,2023-039C,2025-09-22T23:44:03.393024,15.37566135,.00034627,97.5077,66.3107,22.5968,337.5428,0,U,55975,999,13962,.6977652E-3,.25695E-3,0
TIANMU-1 06,2023-039D,2025-09-23T00:25:54.965856,15.37941269,.00037293,97.5090,66.7421,14.8486,345.2867,0,U,55976,999,13964,.6716326E-3,.2503E-3,0
METEOR-M2 3,2023-091A,2025-09-23T00:41:34.659168,14.24011233,.00032832,98.6504,320.9238,212.9259,147.1716,0,U,57166,999,11649,.48434842E-4,.68E-6,0
TIANMU-1 07,2023-101A,2025-09-23T00:07:48.064224,15.26361009,.00043641,97.3004,317.6736,28.4901,331.6576,0,U,57399,999,12083,.50637277E-3,.13105E-3,0
TIANMU-1 08,2023-101B,2025-09-23T00:53:40.841664,15.26355985,.00063402,97.2992,317.5164,24.1327,336.0208,0,U,57400,999,12083,.50751451E-3,.13136E-3,0
TIANMU-1 09,2023-101C,2025-09-23T00:34:47.119008,15.26330807,.00055999,97.2950,317.0630,26.2245,333.9276,0,U,57401,999,12083,.5419041E-3,.1402E-3,0
TIANMU-1 10,2023-101D,2025-09-22T23:48:51.164640,15.26315780,.00073605,97.3029,317.7967,22.0942,338.0612,0,U,57402,999,12082,.48156651E-3,.12447E-3,0
FENGYUN 3F,2023-111A,2025-09-23T01:05:47.145120,14.19861347,.00014279,98.7183,335.6035,106.8989,253.2344,0,U,57490,999,11095,.85759052E-4,.138E-5,0
ARKTIKA-M 2,2023-198A,2025-09-02T15:16:50.138688,2.00594607,.68650099,63.2042,185.8992,268.5190,18.6674,0,U,58584,999,1255,0,.141E-5,0
TIANMU-1 11,2023-205A,2025-09-23T01:07:24.826368,15.23167305,.00083885,97.3687,287.1262,217.0416,143.0243,0,U,58645,999,9680,.43736365E-3,.1028E-3,0
TIANMU-1 12,2023-205B,2025-09-23T00:03:29.279808,15.23035887,.00071414,97.3674,286.9147,197.0255,163.0743,0,U,58646,999,9678,.48657062E-3,.11399E-3,0
TIANMU-1 13,2023-205C,2025-09-23T00:52:20.202816,15.23036619,.00080827,97.3702,287.1179,177.3874,182.7407,0,U,58647,999,9678,.46863842E-3,.10978E-3,0
TIANMU-1 14,2023-205D,2025-09-23T00:27:27.408672,15.23028411,.0008749,97.3632,286.5246,183.1229,176.9955,0,U,58648,999,9678,.47763219E-3,.1119E-3,0
TIANMU-1 19,2023-208A,2025-09-23T00:00:37.240992,15.25660141,.00058873,97.4352,17.3539,170.6676,189.4673,0,U,58660,999,9650,.67527347E-3,.17145E-3,0
TIANMU-1 20,2023-208B,2025-09-22T23:37:51.828096,15.26859896,.00080115,97.4291,17.7067,183.6740,176.4442,0,U,58661,999,9656,.63730142E-3,.16779E-3,0
TIANMU-1 21,2023-208C,2025-09-22T23:25:35.711328,15.29017545,.00076718,97.4336,19.2680,179.7186,180.4060,0,U,58662,999,9664,.66762036E-3,.18778E-3,0
TIANMU-1 22,2023-208D,2025-09-22T23:46:45.794784,15.25554022,.0003985,97.4349,17.4320,189.1789,170.9377,0,U,58663,999,9651,.63075989E-3,.15953E-3,0
